{
  "norad_id": 55986,
  "name": "STARLINK-5905",
  "history": [
    {
      "epoch": "2026-03-28T22:00:01.999584Z",
      "apogee_km": 510.2747888810627,
      "perigee_km": 507.9913833567116,
      "latitude_deg": -41.77997869076608,
      "longitude_deg": 46.96140766587955,
      "height_km": 520.7911233293116,
      "semi_major_axis_km": 6887.270086118887,
      "eccentricity": 0.00016577,
      "inclination_deg": 42.9986,
      "raan_deg": 310.9525,
      "arg_perigee_deg": 248.0962,
      "mean_anomaly_deg": 8.7743,
      "mean_motion_rev_day": 15.18910172
    },
    {
      "epoch": "2026-03-29T04:00:01.999584Z",
      "apogee_km": 508.6767444504894,
      "perigee_km": 507.3215528564351,
      "latitude_deg": -3.948206658013644,
      "longitude_deg": -112.80421282061259,
      "height_km": 508.1321673712618,
      "semi_major_axis_km": 6886.136148653462,
      "eccentricity": 9.84e-05,
      "inclination_deg": 42.9994,
      "raan_deg": 309.5596,
      "arg_perigee_deg": 254.8912,
      "mean_anomaly_deg": 290.7951,
      "mean_motion_rev_day": 15.19285365
    },
    {
      "epoch": "2026-03-30T04:00:01.999584Z",
      "apogee_km": 504.8439048235914,
      "perigee_km": 502.15731350097485,
      "latitude_deg": -42.894680209402274,
      "longitude_deg": -41.3361898284148,
      "height_km": 515.4802514635487,
      "semi_major_axis_km": 6881.637609162282,
      "eccentricity": 0.0001952,
      "inclination_deg": 42.9984,
      "raan_deg": 303.972,
      "arg_perigee_deg": 244.6877,
      "mean_anomaly_deg": 19.6189,
      "mean_motion_rev_day": 15.20775348
    },
    {
      "epoch": "2026-03-30T06:00:02.000160Z",
      "apogee_km": 504.4240756270083,
      "perigee_km": 501.7962649576166,
      "latitude_deg": 0.7073783161657766,
      "longitude_deg": 26.60857710138834,
      "height_km": 502.3533161982883,
      "semi_major_axis_km": 6881.247170292312,
      "eccentricity": 0.00019094,
      "inclination_deg": 42.9992,
      "raan_deg": 303.5069,
      "arg_perigee_deg": 290.8519,
      "mean_anomaly_deg": 70.2435,
      "mean_motion_rev_day": 15.20904782
    },
    {
      "epoch": "2026-03-30T14:00:03.000384Z",
      "apogee_km": 502.6032224818655,
      "perigee_km": 500.5624223937375,
      "latitude_deg": 19.225519799218965,
      "longitude_deg": -74.50768464894317,
      "height_km": 501.6079150488205,
      "semi_major_axis_km": 6879.719822437801,
      "eccentricity": 0.00014832,
      "inclination_deg": 43.0017,
      "raan_deg": 301.6456,
      "arg_perigee_deg": 252.4787,
      "mean_anomaly_deg": 136.2875,
      "mean_motion_rev_day": 15.21411288
    }
  ]
}